{
  "norad_id": 49112,
  "name": "RSW-01",
  "history": [
    {
      "epoch": "2026-03-28T21:03:39.307392Z",
      "apogee_km": 1108.7648667417416,
      "perigee_km": 1088.551351164686,
      "latitude_deg": -2.829411459718602e-05,
      "longitude_deg": 44.26814032166135,
      "height_km": 1097.9741267291747,
      "semi_major_axis_km": 7476.7951089532135,
      "eccentricity": 0.00135175,
      "inclination_deg": 86.4154,
      "raan_deg": 186.4736,
      "arg_perigee_deg": 290.9293,
      "mean_anomaly_deg": 69.0404,
      "mean_motion_rev_day": 13.42856305
    },
    {
      "epoch": "2026-03-29T06:00:08.138016Z",
      "apogee_km": 1108.7716834952316,
      "perigee_km": 1088.5439627807136,
      "latitude_deg": 4.950828247925689e-05,
      "longitude_deg": -90.35209021125026,
      "height_km": 1098.1608406031983,
      "semi_major_axis_km": 7476.794823137972,
      "eccentricity": 0.0013527,
      "inclination_deg": 86.4154,
      "raan_deg": 186.3407,
      "arg_perigee_deg": 289.784,
      "mean_anomaly_deg": 70.1846,
      "mean_motion_rev_day": 13.42856382
    }
  ]
}